OBJECT_NAME,OBJECT_ID,EPOCH,MEAN_MOTION,ECCENTRICITY,INCLINATION,RA_OF_ASC_NODE,ARG_OF_PERICENTER,MEAN_ANOMALY,EPHEMERIS_TYPE,CLASSIFICATION_TYPE,NORAD_CAT_ID,ELEMENT_SET_NO,REV_AT_EPOCH,BSTAR,MEAN_MOTION_DOT,MEAN_MOTION_DDOT
LEMUR-1,2014-033AL,2026-06-10T05:16:48.686880,14.85218903,.0049756,97.7867,311.1809,100.8769,259.8051,0,U,40044,999,64443,.24896E-3,.2127E-4,0
LEMUR-2-GREENBERG,2017-042N,2026-06-10T11:40:55.835040,15.31122099,.0009187,97.3820,342.1441,37.1811,323.0064,0,U,42837,999,48736,.47226E-3,.1415E-3,0
LEMUR-2-ANDIS,2017-042P,2026-06-09T17:58:15.142368,15.34551135,.00087713,97.3682,341.5686,38.8690,321.3182,0,U,42838,999,48731,.63562904E-3,.21256E-3,0
LEMUR-2-MONSON,2017-042Q,2026-06-10T11:32:43.025856,15.27835394,.0006887,97.4079,342.1208,29.6485,330.5143,0,U,42839,999,48714,.46489E-3,.12578E-3,0
LEMUR-2-FURIAUS,2017-042R,2026-06-10T09:50:59.190720,15.30030493,.0008501,97.3771,340.0388,89.8327,270.3888,0,U,42840,999,48717,.56652E-3,.16426E-3,0
LEMUR-2-PETERG,2017-042S,2026-06-10T06:00:24.286176,15.33619587,.000382,97.3992,346.2718,23.6567,336.4850,0,U,42841,999,48737,.64576E-3,.20948E-3,0
LEMUR-2-DEMBITZ,2017-042T,2026-06-10T11:54:06.547968,15.30090720,.0007315,97.3823,343.1422,50.8523,309.3367,0,U,42842,999,48732,.46998E-3,.13631E-3,0
LEMUR-2-ZACHARY,2017-042W,2026-06-10T09:52:17.232384,15.49680313,.0003377,97.3609,352.9074,57.5477,302.6100,0,U,42845,999,48815,.78117E-3,.43377E-3,0
LEMUR-2-AMANDA-SVANTE,2021-034B,2026-06-10T04:22:51.468096,15.33876521,.0001483,97.5763,239.2860,235.0139,125.0964,0,U,48269,999,27998,.91413E-3,.29956E-3,0
LEMUR-2-SPECIAL-K,2021-034F,2026-06-10T11:50:33.934848,15.62586259,.0003496,97.5646,247.8763,231.6158,128.4785,0,U,48273,999,28064,.13296E-2,.120061E-2,0
LEMUR-2-EMBRIONOVIS,2023-084AQ,2026-06-10T07:16:03.991008,15.37378212,.0008195,97.6278,305.2397,347.2971,12.8065,0,U,56970,999,16662,.34009E-3,.12392E-3,0
LEMUR-2-DEVERILL-M-T,2023-100F,2026-06-09T19:48:57.075840,15.39391302,.00070378,99.4479,197.4603,73.2264,286.9746,0,U,57391,999,16011,.68820872E-3,.2689E-3,0
LEMUR-2-BASS,2023-174D,2026-06-10T11:10:35.594400,15.42871086,.0007229,97.3848,246.0855,183.9620,176.1572,0,U,58259,999,14432,.37402E-3,.16353E-3,0
LEMUR-2-JK0903EM1407,2023-174CJ,2026-06-10T05:49:29.496000,15.51324242,.0005941,97.3913,251.5204,139.0791,221.0908,0,U,58336,999,14465,.43286E-3,.25385E-3,0
LEMUR-2-MJR092620,2023-174CN,2026-06-10T11:40:50.408256,15.44627438,.0007103,97.3970,251.3937,137.1078,223.0726,0,U,58340,999,14461,.37968E-3,.17618E-3,0
LEMUR-2-NIMBUS2000,2024-022A,2026-06-10T12:22:31.194048,15.39781941,.001009,97.4121,11.4347,136.3982,223.8063,0,U,58899,999,13124,.38491E-3,.152E-3,0
LEMUR-2-VALHALLA,2024-022B,2026-06-10T12:15:05.344128,15.39469000,.0010646,97.4119,11.4238,132.5950,227.6196,0,U,58900,999,13124,.36703E-3,.14343E-3,0
LEMUR-2-OBA-NI-JESU,2024-022D,2026-06-10T02:58:21.946368,16.14501719,.0004952,97.3669,25.8964,208.7470,151.3544,0,U,58902,999,13219,.13556E-2,.1635442E-1,.22666E-2
LEMUR-2-CAEL,2024-022E,2026-06-10T12:37:18.981696,15.40756490,.0009222,97.4103,12.3636,117.1214,243.0974,0,U,58903,999,13131,.38153E-3,.15555E-3,0
LEMUR-2-JOHNNYTRUONG,2024-043BA,2026-06-10T03:49:15.404448,15.59943500,.00046164,97.5369,312.4307,197.4130,162.6969,0,U,59146,999,12694,.48460597E-3,.39087E-3,0
LEMUR-2-TOMATOKECHUP,2024-149D,2026-06-10T04:50:21.804000,15.35884698,.0000742,97.3797,243.2313,194.7677,165.3545,0,U,60471,999,10109,.27691E-3,.9591E-4,0
LEMUR-2-STELLA,2024-149BT,2026-06-10T11:06:17.958240,15.11661191,.0001729,97.6731,243.8889,99.7271,260.4154,0,U,60533,999,9948,.59622E-3,.10082E-3,0
LEMUR-2-MARHISYAM,2024-149BW,2026-06-10T05:48:24.414336,15.11118694,.0003102,97.6879,244.1092,130.9350,229.2148,0,U,60536,999,9943,.64713E-3,.10787E-3,0
LEMUR-2-AHMED-ASRAR,2024-149DN,2026-06-10T11:32:54.707136,15.12561509,.0002463,97.7001,246.4168,59.8408,300.3066,0,U,60576,999,9955,.61144E-3,.10604E-3,0
LEMUR-2-LLOYD,2024-149DP,2026-06-10T11:28:43.455072,15.09110626,.0004671,97.6749,242.6043,154.4127,205.7333,0,U,60577,999,9938,.58864E-3,.9277E-4,0
LEMUR-2-SQUIRRELCOMM,2024-149DQ,2026-06-10T11:35:56.445216,15.07078110,.000702,97.6715,242.4160,80.7150,279.4871,0,U,60578,999,9939,.36287E-3,.5385E-4,0
LEMUR-2-SIERRINI,2024-149DR,2026-06-10T11:06:18.461088,15.10801870,.0005294,97.6835,244.0258,185.7617,174.3552,0,U,60579,999,9944,.59397E-3,.9809E-4,0
LEMUR-2-WILSON,2025-009CP,2026-06-10T03:14:11.886720,14.95134980,.00044416,97.7022,239.7234,71.8589,288.3115,0,U,62694,999,7630,.15167994E-3,.1607E-4,0
LEMUR-2-STAR-FOX,2025-009CR,2026-06-09T23:11:57.651072,15.02396930,.00030782,97.6948,242.6277,130.7353,229.4140,0,U,62696,999,7647,.60152859E-3,.791E-4,0
LEMUR-2-ARIANNA,2025-009CU,2026-06-10T03:57:09.762048,15.02380057,.0003419,97.6888,242.6042,136.4973,223.6521,0,U,62699,999,7650,.57655E-3,.7575E-4,0
