LEMUR-1                 
1 40044U 14033AL  26161.22000795  .00002127  00000+0  24896-3 0  9997
2 40044  97.7867 311.1809 0049756 100.8769 259.8051 14.85218903644435
LEMUR-2-GREENBERG       
1 42837U 17042N   26161.48675735  .00014150  00000+0  47226-3 0  9993
2 42837  97.3820 342.1441 0009187  37.1811 323.0064 15.31122099487369
LEMUR-2-ANDIS           
1 42838U 17042P   26160.74878637  .00021256  00000+0  63563-3 0  9995
2 42838  97.3682 341.5686 0008771  38.8690 321.3182 15.34551135487318
LEMUR-2-MONSON          
1 42839U 17042Q   26161.48105354  .00012578  00000+0  46489-3 0  9992
2 42839  97.4079 342.1208 0006887  29.6485 330.5143 15.27835394487147
LEMUR-2-FURIAUS         
1 42840U 17042R   26161.41040730  .00016426  00000+0  56652-3 0  9992
2 42840  97.3771 340.0388 0008501  89.8327 270.3888 15.30030493487172
LEMUR-2-PETERG          
1 42841U 17042S   26161.25028109  .00020948  00000+0  64576-3 0  9999
2 42841  97.3992 346.2718 0003820  23.6567 336.4850 15.33619587487379
LEMUR-2-DEMBITZ         
1 42842U 17042T   26161.49590912  .00013631  00000+0  46998-3 0  9991
2 42842  97.3823 343.1422 0007315  50.8523 309.3367 15.30090720487324
LEMUR-2-ZACHARY         
1 42845U 17042W   26161.41131056  .00043377  00000+0  78117-3 0  9994
2 42845  97.3609 352.9074 0003377  57.5477 302.6100 15.49680313488152
LEMUR-2-AMANDA-SVANTE   
1 48269U 21034B   26161.18254014  .00029956  00000+0  91413-3 0  9991
2 48269  97.5763 239.2860 0001483 235.0139 125.0964 15.33876521279980
LEMUR-2-SPECIAL-K       
1 48273U 21034F   26161.49344832  .00120061  00000+0  13296-2 0  9999
2 48273  97.5646 247.8763 0003496 231.6158 128.4785 15.62586259280642
LEMUR-2-EMBRIONOVIS     
1 56970U 23084AQ  26161.30282397  .00012392  00000+0  34009-3 0  9999
2 56970  97.6278 305.2397 0008195 347.2971  12.8065 15.37378212166625
LEMUR-2-DEVERILL-M-T    
1 57391U 23100F   26160.82566060  .00026890  00000+0  68821-3 0  9991
2 57391  99.4479 197.4603 0007037  73.2264 286.9746 15.39391302160117
LEMUR-2-BASS            
1 58259U 23174D   26161.46568975  .00016353  00000+0  37402-3 0  9998
2 58259  97.3848 246.0855 0007229 183.9620 176.1572 15.42871086144324
LEMUR-2-JK0903EM1407    
1 58336U 23174CJ  26161.24270250  .00025385  00000+0  43286-3 0  9998
2 58336  97.3913 251.5204 0005941 139.0791 221.0908 15.51324242144658
LEMUR-2-MJR092620       
1 58340U 23174CN  26161.48669454  .00017618  00000+0  37968-3 0  9997
2 58340  97.3970 251.3937 0007103 137.1078 223.0726 15.44627438144617
LEMUR-2-NIMBUS2000      
1 58899U 24022A   26161.51563882  .00015200  00000+0  38491-3 0  9998
2 58899  97.4121  11.4347 0010090 136.3982 223.8063 15.39781941131240
LEMUR-2-VALHALLA        
1 58900U 24022B   26161.51047852  .00014343  00000+0  36703-3 0  9996
2 58900  97.4119  11.4238 0010646 132.5950 227.6196 15.39469000131247
LEMUR-2-OBA-NI-JESU     
1 58902U 24022D   26161.12386512  .01635442  22666-2  13556-2 0  9999
2 58902  97.3669  25.8964 0004952 208.7470 151.3544 16.14501719132192
LEMUR-2-CAEL            
1 58903U 24022E   26161.52591414  .00015555  00000+0  38153-3 0  9995
2 58903  97.4103  12.3636 0009222 117.1214 243.0974 15.40756490131313
LEMUR-2-JOHNNYTRUONG    
1 59146U 24043BA  26161.15920607  .00039087  00000+0  48461-3 0  9996
2 59146  97.5369 312.4307 0004616 197.4130 162.6969 15.59943500126940
LEMUR-2-TOMATOKECHUP    
1 60471U 24149D   26161.20164125  .00009591  00000+0  27691-3 0  9996
2 60471  97.3797 243.2313 0000742 194.7677 165.3545 15.35884698101091
LEMUR-2-STELLA          
1 60533U 24149BT  26161.46270785  .00010082  00000+0  59622-3 0  9999
2 60533  97.6731 243.8889 0001729  99.7271 260.4154 15.11661191 99482
LEMUR-2-MARHISYAM       
1 60536U 24149BW  26161.24194924  .00010787  00000+0  64713-3 0  9997
2 60536  97.6879 244.1092 0003102 130.9350 229.2148 15.11118694 99437
LEMUR-2-AHMED-ASRAR     
1 60576U 24149DN  26161.48118874  .00010604  00000+0  61144-3 0  9990
2 60576  97.7001 246.4168 0002463  59.8408 300.3066 15.12561509 99551
LEMUR-2-LLOYD           
1 60577U 24149DP  26161.47828073  .00009277  00000+0  58864-3 0  9998
2 60577  97.6749 242.6043 0004671 154.4127 205.7333 15.09110626 99385
LEMUR-2-SQUIRRELCOMM    
1 60578U 24149DQ  26161.48329219  .00005385  00000+0  36287-3 0  9999
2 60578  97.6715 242.4160 0007020  80.7150 279.4871 15.07078110 99390
LEMUR-2-SIERRINI        
1 60579U 24149DR  26161.46271367  .00009809  00000+0  59397-3 0  9990
2 60579  97.6835 244.0258 0005294 185.7617 174.3552 15.10801870 99441
LEMUR-2-WILSON          
1 62694U 25009CP  26161.13485980  .00001607  00000+0  15168-3 0  9994
2 62694  97.7022 239.7234 0004441  71.8589 288.3115 14.95134980 76305
LEMUR-2-STAR-FOX        
1 62696U 25009CR  26160.96663948  .00007910  00000+0  60153-3 0  9995
2 62696  97.6948 242.6277 0003078 130.7353 229.4140 15.02396930 76478
LEMUR-2-ARIANNA         
1 62699U 25009CU  26161.16469632  .00007575  00000+0  57655-3 0  9995
2 62699  97.6888 242.6042 0003419 136.4973 223.6521 15.02380057 76500
